start=new Date('2023-01-06T00:00:00.000Z').valueOf();
sats=[{"BSTAR":"0.00018205000000","ELEMENT_SET_NO":"999","CENTER_NAME":"EARTH","REF_FRAME":"TEME","GP_ID":"222286389","RCS_SIZE":"LARGE","CLASSIFICATION_TYPE":"U","ECCENTRICITY":"0.00014340","PERIOD":"95.592","PERIAPSIS":"546.212","EPHEMERIS_TYPE":"0","OBJECT_TYPE":"PAYLOAD","MEAN_MOTION":"15.06402801","APOAPSIS":"548.198","COUNTRY_CODE":"US","NORAD_CAT_ID":"46760","MEAN_MOTION_DOT":"0.00002431","SITE":"AFETR","TLE_LINE1":"1 46760U 20074X   23005.65118220  .00002431  00000-0  18205-3 0  9990","MEAN_MOTION_DDOT":"0.0000000000000","EPOCH":"2023-01-05T15:37:42.142080","MEAN_ELEMENT_THEORY":"SGP4","DECAY_DATE":null,"LAUNCH_DATE":"2020-10-24","SEMIMAJOR_AXIS":"6925.340","RA_OF_ASC_NODE":"139.7585","OBJECT_NAME":"STARLINK-1896","MEAN_ANOMALY":"287.6152","TIME_SYSTEM":"UTC","FILE":"3732963","ARG_OF_PERICENTER":"72.4994","REV_AT_EPOCH":"12177","OBJECT_ID":"2020-074X","INCLINATION":"53.0548","TLE_LINE2":"2 46760  53.0548 139.7585 0001434  72.4994 287.6152 15.06402801121771"},{"RCS_SIZE":"LARGE","CLASSIFICATION_TYPE":"U","ELEMENT_SET_NO":"999","BSTAR":"0.00031777000000","CENTER_NAME":"EARTH","REF_FRAME":"TEME","GP_ID":"222286635","OBJECT_TYPE":"PAYLOAD","EPHEMERIS_TYPE":"0","MEAN_MOTION":"15.77029970","APOAPSIS":"344.300","COUNTRY_CODE":"US","ECCENTRICITY":"0.00080940","PERIOD":"91.311","PERIAPSIS":"333.426","EPOCH":"2023-01-05T17:55:49.771776","MEAN_ELEMENT_THEORY":"SGP4","DECAY_DATE":null,"LAUNCH_DATE":"2020-10-24","RA_OF_ASC_NODE":"22.2651","SEMIMAJOR_AXIS":"6716.998","OBJECT_NAME":"STARLINK-1902","MEAN_ANOMALY":"80.0715","NORAD_CAT_ID":"46763","MEAN_MOTION_DOT":"0.00052477","SITE":"AFETR","TLE_LINE1":"1 46763U 20074AA  23005.74710384  .00052477  00000-0  31777-3 0  9996","MEAN_MOTION_DDOT":"0.0000000000000","INCLINATION":"53.0415","TLE_LINE2":"2 46763  53.0415  22.2651 0008094 279.9390  80.0715 15.77029970123435","TIME_SYSTEM":"UTC","ARG_OF_PERICENTER":"279.9390","FILE":"3732963","REV_AT_EPOCH":"12343","OBJECT_ID":"2020-074AA"},{"PERIAPSIS":"546.137","PERIOD":"95.593","ECCENTRICITY":"0.00016320","APOAPSIS":"548.398","MEAN_MOTION":"15.06382364","COUNTRY_CODE":"US","OBJECT_TYPE":"PAYLOAD","EPHEMERIS_TYPE":"0","GP_ID":"222259939","BSTAR":"-0.00022088000000","ELEMENT_SET_NO":"999","REF_FRAME":"TEME","CENTER_NAME":"EARTH","RCS_SIZE":"LARGE","CLASSIFICATION_TYPE":"U","FILE":"3732939","ARG_OF_PERICENTER":"78.7674","TIME_SYSTEM":"UTC","OBJECT_ID":"2020-074AB","REV_AT_EPOCH":"12173","TLE_LINE2":"2 46764  53.0520 140.9799 0001632  78.7674 281.3498 15.06382364121731","INCLINATION":"53.0520","SITE":"AFETR","MEAN_MOTION_DDOT":"0.0000000000000","TLE_LINE1":"1 46764U 20074AB  23005.37844191 -.00003568  00000-0 -22088-3 0  9994","NORAD_CAT_ID":"46764","MEAN_MOTION_DOT":"-0.00003568","OBJECT_NAME":"STARLINK-1903","RA_OF_ASC_NODE":"140.9799","LAUNCH_DATE":"2020-10-24","SEMIMAJOR_AXIS":"6925.403","MEAN_ANOMALY":"281.3498","DECAY_DATE":null,"MEAN_ELEMENT_THEORY":"SGP4","EPOCH":"2023-01-05T09:04:57.381024"},{"OBJECT_ID":"2020-074AC","REV_AT_EPOCH":"12176","FILE":"3732963","ARG_OF_PERICENTER":"68.0903","TIME_SYSTEM":"UTC","TLE_LINE2":"2 46765  53.0565 139.8153 0001286  68.0903 292.0222 15.06410993121761","INCLINATION":"53.0565","MEAN_MOTION_DOT":"0.00002117","NORAD_CAT_ID":"46765","MEAN_MOTION_DDOT":"0.0000000000000","TLE_LINE1":"1 46765U 20074AC  23005.63274690  .00002117  00000-0  16090-3 0  9998","SITE":"AFETR","DECAY_DATE":null,"MEAN_ELEMENT_THEORY":"SGP4","EPOCH":"2023-01-05T15:11:09.332160","MEAN_ANOMALY":"292.0222","OBJECT_NAME":"STARLINK-1906","LAUNCH_DATE":"2020-10-24","SEMIMAJOR_AXIS":"6925.315","RA_OF_ASC_NODE":"139.8153","ECCENTRICITY":"0.00012860","PERIAPSIS":"546.289","PERIOD":"95.591","EPHEMERIS_TYPE":"0","OBJECT_TYPE":"PAYLOAD","COUNTRY_CODE":"US","APOAPSIS":"548.070","MEAN_MOTION":"15.06410993","REF_FRAME":"TEME","CENTER_NAME":"EARTH","ELEMENT_SET_NO":"999","BSTAR":"0.00016090000000","GP_ID":"222286140","CLASSIFICATION_TYPE":"U","RCS_SIZE":"LARGE"},{"GP_ID":"222237329","CENTER_NAME":"EARTH","REF_FRAME":"TEME","BSTAR":"0.00013675000000","ELEMENT_SET_NO":"999","CLASSIFICATION_TYPE":"U","RCS_SIZE":"LARGE","PERIOD":"95.592","PERIAPSIS":"546.345","ECCENTRICITY":"0.00012170","COUNTRY_CODE":"US","MEAN_MOTION":"15.06408403","APOAPSIS":"548.031","OBJECT_TYPE":"PAYLOAD","EPHEMERIS_TYPE":"0","TLE_LINE1":"1 46766U 20074AD  23005.62537888  .00001757  00000-0  13675-3 0  9994","MEAN_MOTION_DDOT":"0.0000000000000","SITE":"AFETR","MEAN_MOTION_DOT":"0.00001757","NORAD_CAT_ID":"46766","MEAN_ANOMALY":"278.4359","RA_OF_ASC_NODE":"139.8700","LAUNCH_DATE":"2020-10-24","SEMIMAJOR_AXIS":"6925.323","OBJECT_NAME":"STARLINK-1916","EPOCH":"2023-01-05T15:00:32.735232","MEAN_ELEMENT_THEORY":"SGP4","DECAY_DATE":null,"REV_AT_EPOCH":"12150","OBJECT_ID":"2020-074AD","TIME_SYSTEM":"UTC","ARG_OF_PERICENTER":"81.6767","FILE":"3732838","INCLINATION":"53.0518","TLE_LINE2":"2 46766  53.0518 139.8700 0001217  81.6767 278.4359 15.06408403121505"},{"TIME_SYSTEM":"UTC","FILE":"3732963","ARG_OF_PERICENTER":"76.4263","REV_AT_EPOCH":"12177","OBJECT_ID":"2020-074AE","INCLINATION":"53.0546","TLE_LINE2":"2 46767  53.0546 139.7255 0001399  76.4263 283.6882 15.06401283121772","SITE":"AFETR","TLE_LINE1":"1 46767U 20074AE  23005.65488015  .00003682  00000-0  26594-3 0  9998","MEAN_MOTION_DDOT":"0.0000000000000","NORAD_CAT_ID":"46767","MEAN_MOTION_DOT":"0.00003682","LAUNCH_DATE":"2020-10-24","SEMIMAJOR_AXIS":"6925.345","RA_OF_ASC_NODE":"139.7255","OBJECT_NAME":"STARLINK-1917","MEAN_ANOMALY":"283.6882","EPOCH":"2023-01-05T15:43:01.644960","MEAN_ELEMENT_THEORY":"SGP4","DECAY_DATE":null,"PERIOD":"95.592","PERIAPSIS":"546.241","ECCENTRICITY":"0.00013990","MEAN_MOTION":"15.06401283","APOAPSIS":"548.178","COUNTRY_CODE":"US","EPHEMERIS_TYPE":"0","OBJECT_TYPE":"PAYLOAD","GP_ID":"222287136","ELEMENT_SET_NO":"999","BSTAR":"0.00026594000000","CENTER_NAME":"EARTH","REF_FRAME":"TEME","RCS_SIZE":"LARGE","CLASSIFICATION_TYPE":"U"},{"TLE_LINE1":"1 46768U 20074AF  23004.66335837  .00000794  00000-0  72216-4 0  9996","MEAN_MOTION_DDOT":"0.0000000000000","SITE":"AFETR","MEAN_MOTION_DOT":"0.00000794","NORAD_CAT_ID":"46768","MEAN_ANOMALY":"302.4870","RA_OF_ASC_NODE":"144.1787","LAUNCH_DATE":"2020-10-24","SEMIMAJOR_AXIS":"6925.350","OBJECT_NAME":"STARLINK-1918","MEAN_ELEMENT_THEORY":"SGP4","EPOCH":"2023-01-04T15:55:14.163168","DECAY_DATE":null,"REV_AT_EPOCH":"12164","OBJECT_ID":"2020-074AF","TIME_SYSTEM":"UTC","FILE":"3731792","ARG_OF_PERICENTER":"57.6295","INCLINATION":"53.0539","TLE_LINE2":"2 46768  53.0539 144.1787 0001820  57.6295 302.4870 15.06399546121641","GP_ID":"222136137","CENTER_NAME":"EARTH","REF_FRAME":"TEME","ELEMENT_SET_NO":"999","BSTAR":"0.00007221600000","CLASSIFICATION_TYPE":"U","RCS_SIZE":"LARGE","PERIOD":"95.592","PERIAPSIS":"545.955","ECCENTRICITY":"0.00018200","COUNTRY_CODE":"US","MEAN_MOTION":"15.06399546","APOAPSIS":"548.475","EPHEMERIS_TYPE":"0","OBJECT_TYPE":"PAYLOAD"},{"ECCENTRICITY":"0.00016320","PERIAPSIS":"546.069","PERIOD":"95.592","OBJECT_TYPE":"PAYLOAD","EPHEMERIS_TYPE":"0","APOAPSIS":"548.330","MEAN_MOTION":"15.06404625","COUNTRY_CODE":"US","BSTAR":"0.00018552000000","ELEMENT_SET_NO":"999","REF_FRAME":"TEME","CENTER_NAME":"EARTH","GP_ID":"222285640","RCS_SIZE":"LARGE","CLASSIFICATION_TYPE":"U","ARG_OF_PERICENTER":"55.8276","FILE":"3732963","TIME_SYSTEM":"UTC","OBJECT_ID":"2020-074AH","REV_AT_EPOCH":"12176","TLE_LINE2":"2 46770  53.0540 140.2386 0001632  55.8276 304.2868 15.06404625121763","INCLINATION":"53.0540","NORAD_CAT_ID":"46770","MEAN_MOTION_DOT":"0.00002483","SITE":"AFETR","MEAN_MOTION_DDOT":"0.0000000000000","TLE_LINE1":"1 46770U 20074AH  23005.66599481  .00002483  00000-0  18552-3 0  9996","DECAY_DATE":null,"MEAN_ELEMENT_THEORY":"SGP4","EPOCH":"2023-01-05T15:59:01.951584","OBJECT_NAME":"STARLINK-1932","SEMIMAJOR_AXIS":"6925.334","LAUNCH_DATE":"2020-10-24","RA_OF_ASC_NODE":"140.2386","MEAN_ANOMALY":"304.2868"},{"REF_FRAME":"TEME","CENTER_NAME":"EARTH","ELEMENT_SET_NO":"999","BSTAR":"0.00022083000000","GP_ID":"222286390","CLASSIFICATION_TYPE":"U","RCS_SIZE":"LARGE","ECCENTRICITY":"0.00013880","PERIAPSIS":"546.227","PERIOD":"95.592","OBJECT_TYPE":"PAYLOAD","EPHEMERIS_TYPE":"0","COUNTRY_CODE":"US","APOAPSIS":"548.150","MEAN_MOTION":"15.06408175","MEAN_MOTION_DOT":"0.00003010","NORAD_CAT_ID":"46772","MEAN_MOTION_DDOT":"0.0000000000000","TLE_LINE1":"1 46772U 20074AK  23005.66497920  .00003010  00000-0  22083-3 0  9994","SITE":"AFETR","DECAY_DATE":null,"MEAN_ELEMENT_THEORY":"SGP4","EPOCH":"2023-01-05T15:57:34.202880","MEAN_ANOMALY":"297.2675","OBJECT_NAME":"STARLINK-1936","RA_OF_ASC_NODE":"139.6824","LAUNCH_DATE":"2020-10-24","SEMIMAJOR_AXIS":"6925.324","OBJECT_ID":"2020-074AK","REV_AT_EPOCH":"12177","FILE":"3732963","ARG_OF_PERICENTER":"62.8455","TIME_SYSTEM":"UTC","TLE_LINE2":"2 46772  53.0546 139.6824 0001388  62.8455 297.2675 15.06408175121777","INCLINATION":"53.0546"},{"GP_ID":"222237656","REF_FRAME":"TEME","CENTER_NAME":"EARTH","BSTAR":"0.00265880000000","ELEMENT_SET_NO":"999","CLASSIFICATION_TYPE":"U","RCS_SIZE":"LARGE","PERIAPSIS":"476.898","PERIOD":"94.162","ECCENTRICITY":"0.00015670","COUNTRY_CODE":"US","APOAPSIS":"479.046","MEAN_MOTION":"15.29277813","EPHEMERIS_TYPE":"0","OBJECT_TYPE":"PAYLOAD","MEAN_MOTION_DDOT":"0.0000000000000","TLE_LINE1":"1 46774U 20074AM  23005.57176092  .00076985  00000-0  26588-2 0  9994","SITE":"AFETR","MEAN_MOTION_DOT":"0.00076985","NORAD_CAT_ID":"46774","MEAN_ANOMALY":"149.4259","OBJECT_NAME":"STARLINK-1939","LAUNCH_DATE":"2020-10-24","SEMIMAJOR_AXIS":"6856.107","RA_OF_ASC_NODE":"112.2758","DECAY_DATE":null,"EPOCH":"2023-01-05T13:43:20.143488","MEAN_ELEMENT_THEORY":"SGP4","OBJECT_ID":"2020-074AM","REV_AT_EPOCH":"12216","ARG_OF_PERICENTER":"210.6649","FILE":"3732860","TIME_SYSTEM":"UTC","TLE_LINE2":"2 46774  53.0547 112.2758 0001567 210.6649 149.4259 15.29277813122168","INCLINATION":"53.0547"}];
